ONEWEB-0267             
1 48985U 21060U   25141.83242235  .00000077  00000+0  16829-3 0  9997
2 48985  87.9021 306.7821 0001534 100.6518 259.4786 13.16594751189386
ONEWEB-0268             
1 48986U 21060V   25141.87675683  .00000049  00000+0  94344-4 0  9997
2 48986  87.9017 306.7799 0001683  92.5139 267.6184 13.16593982189657
ONEWEB-0269             
1 48987U 21060W   25141.17378907 -.00000058  00000+0 -18560-3 0  9997
2 48987  87.9019 306.9548 0001824  93.0115 267.1225 13.16593417188047
ONEWEB-0270             
1 48988U 21060X   25141.49520253  .00000024  00000+0  27921-4 0  9999
2 48988  87.9016 306.8600 0001614 109.5634 250.5671 13.16595848188129
ONEWEB-0271             
1 48989U 21060Y   25142.16649807 -.00000015  00000+0 -73660-4 0  9995
2 48989  87.9020 306.7069 0001552 100.6268 259.5038 13.16593430189503
ONEWEB-0272             
1 48990U 21060Z   25141.50468579  .00000083  00000+0  18378-3 0  9996
2 48990  87.9019 306.8710 0001601  98.6329 261.4983 13.16594124188079
ONEWEB-0273             
1 48991U 21060AA  25141.52685431  .00000161  00000+0  38731-3 0  9999
2 48991  87.9020 306.8516 0001781 101.6614 258.4717 13.16594134188057
ONEWEB-0274             
1 48992U 21060AB  25141.40017234  .00000031  00000+0  47282-4 0  9995
2 48992  87.9025 306.9126 0001474  85.2125 274.9174 13.16597210188074
